#dP2023  6 20  0  0  0.00000000      96 __u+U ITR00 EXT  IAC
## 2267 172800.00000000   900.00000000 60115 0.0000000000000
+  119   C06C07C08C09C10C11C12C13C14C16C19C20C21C22C23C24C25
+        C26C27C28C29C30C32C33C34C35C36C37C38C39C40C41C42C43
+        C44C45C46E02E03E04E05E07E08E09E10E11E12E13E14E15E18
+        E19E21E24E25E26E27E30E31E33E34E36G01G02G03G04G05G06
+        G07G08G09G10G11G12G13G14G15G16G17G18G19G20G21G22G23
+        G24G25G26G27G28G29G30G31G32J02J03J04R01R02R03R04R05
+        R07R08R09R11R12R13R14R15R16R17R18R19R20R21R22R24R25
++         9 10 10  9  9  8  8 10  8  8  7  7  8  9  7  7  9
++         8  7  9  8  9  8  8  8  8  9 10  8 10  8  8  7  8
++         8  7  8  7  7  6  6  7  8  7  6  6  6  6  7  7  7
++         7  8  6  6  6  7  7  6  7  6  6  5  6  6  7  8  6
++         7  7  7  6  6  7  6  6  8  6  8  5  6  6  7  6  7
++         7  6  6  5  7  7  7  7  7  9  8  8  7  6  9  8  9
++         8  6  8  8  8  8  7  8  8  7  7  8  8  9  8  7  7
%c M  cc GPS ccc cccc cccc cccc cccc ccccc ccccc ccccc ccccc
%c cc cc ccc ccc cccc cccc cccc cccc ccccc ccccc ccccc ccccc
%f  0.0000000  0.000000000  0.00000000000  0.000000000000000
%f  0.0000000  0.000000000  0.00000000000  0.000000000000000
%i    0    0    0    0      0      0      0      0         0
%i    0    0    0    0      0      0      0      0         0
/* IAC                                ULTRA-RAPID PREDICTION
/* S/V CLOCKS ARE ALIGNED TO GNSS TIME                      
/* G:C1WC2W R:C1PC2P E:C1XC5X C:C2IC6I J:C1CC2S             
/* PCV:IGS20_2247 OL/AL:FES2004  NONE     YN ORB:CoN CLK:CoN
*  2023 06 20 21 15  0.00000000
PC06 -17212.291118  36956.781405  10173.967933   -174.503574
PC07  -1882.499916  34902.959671  23774.266147   -202.765336
PC08  -9926.990798  19586.550120 -36034.925114    453.442893
PC09  -9692.874463  35753.555381  20013.434466    510.667871
PC10   4482.988121  37571.927958  19451.285424    -91.638404
PC11  14713.212047   4633.239708 -23194.286938    684.628208
PC12   3096.837015  21745.050545 -17189.818217    727.630979
PC13  -1634.486593  21828.076370 -35895.222566    300.213384
PC14  21242.317037  13020.153708  12650.971338    440.665980
PC16 -18049.738032  36888.958566   9103.999055     35.778046
PC19 -19747.460649  -3934.015167 -19284.501003   -926.311129
PC20 -19698.434988 -18915.623671  -5629.094814    489.858877
PC21   7695.811733  23707.988877 -12565.825582   -925.514438
PC22  -8416.943049  14135.040454 -22547.716507   -431.852839
PC23  20449.866426 -12972.682014 -13855.375284   -964.307768
PC24  18515.828155  10528.136045  18014.293391     84.952567
PC25  27649.743422  -3065.112767   2067.833662    151.496166
PC26    213.714614  16415.844650  22556.223908   -137.594545
PC27   2784.752228 -25712.276402  10469.461492    158.075833
PC28  14055.093302 -23409.370376  -5753.350936    117.496210
PC29 -17736.215428   6751.800698  20449.643208    136.704579
PC30 -10692.475532 -14291.315775  21444.077121     -1.408261
PC32  -7755.152285 -23617.033482  12676.927049   -546.712582
PC33  19855.532588   3920.603698  19227.528466   -898.635823
PC34  11541.685698  12967.883593 -21861.133891    197.488221
PC35 -13464.324847  23607.466353   6243.208980    604.044244
PC36 -27701.674506   1926.553690  -2762.561916   -372.204311
PC37   1362.045704 -16505.962401 -22440.268586   -786.714034
PC38 -18182.516980  20313.790195 -32186.643428     86.419394
PC39 -19840.270666  36940.729339   2836.984707     -3.432351
PC40  -4884.994342  31909.360103  27262.007469    -26.873501
PC41   9014.186909 -13588.374913  22696.502897   -917.247101
PC42  19321.714162  19695.048916   4343.906780   -641.718735
PC43  17772.974052  -5753.889930 -20750.503113     27.092488
PC44  -1851.144810  25856.498662 -10313.009060    144.310554
PC45 -20080.914442  13094.860643  14305.615028   -112.840334
PC46 -19780.758698  -9641.874466 -17177.324724    -63.022078
PE02 -25285.433637 -14742.924693  -4452.219523     45.211209
PE03 -15222.046451 -16834.113713 -18991.487301    -28.323473
PE04  16494.360981  -4851.787889  24105.858763   -149.218287
PE05  -4988.190857 -29054.246504  -2630.049943    -56.142085
PE07  -8224.718649  23963.548030 -15307.999694    -54.143694
PE08 -16401.471181   4483.194685 -24225.565421   -102.120144
PE09   8217.586127 -23822.074481  15521.202647    -57.114891
PE10  24261.987753 -16912.522777  -1189.533071   -542.686922
PE11  18702.032764 -21027.851617   9183.098530   2277.173008
PE12  25690.800025 -10440.388745 -10387.514272   -587.589296
PE13 -19178.457939  20868.478587  -8530.143805    -19.296421
PE14  10416.467841 -20810.762048 -12802.948566    259.787897
PE15 -25616.565322  10238.940867  10720.420455    -30.992854
PE18   -324.063896  30865.259423    346.584412    205.050480
PE19  14149.406438  19325.542638  17405.645586  -2254.230153
PE21  10705.348208  19480.517898  19549.659877   -536.151444
PE24  11641.113763 -12884.020005 -23981.463006   -166.033916
PE25 -10350.797712 -19466.987444 -19742.856818   -607.078079
PE26   -769.791288  18942.241851 -22736.571143    139.966943
PE27 -10892.835326  13263.050011  24121.048014    -79.637901
PE30 -26054.694308  -1168.649654  13999.167510   -271.684023
PE31  25833.972345    703.244448 -14425.039039   -526.310084
PE33  16883.371250   6340.759333 -23477.565239   -442.904452
PE34 -17007.322562  -6182.324415  23413.245684    -51.880327
PE36   1617.997559 -19142.815503  22515.489801    -74.240433
PG01  -8774.931583  18810.683056 -16702.191788    177.188900
PG02 -13530.993644  20021.741542 -10345.190294   -583.891354
PG03   2189.605806  16585.311784 -20795.744760   -263.188260
PG04   -491.201818  26405.670981  -2138.767695     73.772615
PG05  14827.823309  -8720.260163  20090.664357   -131.871510
PG06  21431.720385  -1931.946512 -15574.927228    583.914313
PG07   7514.417630  13793.943182  21862.145062    146.947546
PG08  -7254.025659  21540.200054  13337.637146   -128.333778
PG09   7481.367199  24373.850911   7289.336709   -131.080041
PG10 -24244.781432 -11232.016283   -645.698378    -41.970372
PG11  23304.465704 -12540.487748  -1971.093325   -243.508163
PG12   2382.768401 -15794.218098 -21508.836997   -391.045615
PG13  12963.421376 -14958.098527  17427.195655    536.695435
PG14  22871.487084  13538.271538   1930.518384     97.099506
PG15   4339.625268 -22789.170098  12234.706996     50.707634
PG16 -18644.840895   3705.806942  18427.451087   -489.413804
PG17  13081.877298  12374.124238 -19061.096413    718.982827
PG18  -9737.526610 -11435.435093  21910.793055   -315.412472
PG19  14779.014336   4241.818737 -21906.701236    333.274468
PG20  22062.023092  -4099.629203  14094.999807    426.931517
PG21 -15427.341504  19410.129483  -7655.206063    152.935839
PG22 -14961.275159    -86.252735 -21493.084153    500.966728
PG23 -18135.332031 -16223.463478  10837.410374     35.130929
PG24  11034.957507 -20759.891868 -12298.756407   -231.656852
PG25 -11123.933745 -18101.218121 -16414.568307    451.111865
PG26 -24936.482739  -2783.004751   9099.619695    238.583408
PG27 -12945.893968  11156.274765  19965.880789     12.531184
PG28 -20620.292826    562.259040 -16750.237564     83.542919
PG29  -3775.817985 -25597.092339   5719.900211   -603.412584
PG30  16726.520589   6416.741669  19800.978881   -509.716493
PG31 -24054.290974   9419.715570  -7237.754101   -218.555183
PG32 -14732.103576  -9407.578563 -19874.006076   -504.578885
PJ02 -27993.041859  21071.723356  28519.152612     -0.677609
PJ03 -32856.177497  26268.656709   7176.692073      7.056150
PJ04 -21723.154439  23384.343456 -22432.323158     95.646357
PR01 -12279.333660 -22347.058349    289.462713     59.820935
PR02 -14989.321044 -12227.893355 -16616.701747    -22.678770
PR03  -9522.663323   5218.671853 -23033.279726     80.050588
PR04   1182.310178  19253.965006 -16654.057351    191.974538
PR05  11071.249119  22936.783608  -1196.476380    114.495140
PR07   9067.845975  -6133.993912  23082.373950     58.478296
PR08  -1308.487795 -19409.347103  16575.805614    -71.350805
PR09  24594.532192   3355.866308   6078.146043    126.898402
PR11   8916.496553 -10046.840519 -21674.562130    -84.615399
PR12 -12105.061015 -10045.522125 -20054.731036     28.321153
PR13 -23816.818593  -4418.700147  -8000.272640    -36.285407
PR14 -22444.890826   4752.615761  11141.528706     24.834021
PR15  -7623.443360  10336.675006  22060.218026     88.441869
PR16  11873.232043   9909.525088  20310.501075     15.850298
PR17 -16404.647758  15719.843942  11638.197560    640.798165
PR18 -11864.941676  22028.012752  -4829.533577     87.604706
PR19  -2730.181071  17883.979590 -17992.365648   -236.992707
PR20  11626.442143    985.617801 -22687.273545    -95.083129
PR21  16395.908402 -16495.033767 -10450.987132    -16.760505
PR22  12016.568393 -21759.266057   5777.301047     82.865109
PR24 -12345.574734   -250.783975  22331.879192    -12.855050
PR25  17212.251937 -14752.691715 -11673.956714     58.742156
EOF
